[{"OBJECT_NAME":"CUTE-1.7+APD II (CO-65)","OBJECT_ID":"2008-021C","EPOCH":"2026-03-03T03:29:59.842464","MEAN_MOTION":15.08255715,"ECCENTRICITY":0.0010305,"INCLINATION":97.8194,"RA_OF_ASC_NODE":41.5004,"ARG_OF_PERICENTER":38.7963,"MEAN_ANOMALY":321.4002,"EPHEMERIS_TYPE":0,"CLASSIFICATION_TYPE":"U","NORAD_CAT_ID":32785,"ELEMENT_SET_NO":999,"REV_AT_EPOCH":96920,"BSTAR":0.00055688,"MEAN_MOTION_DOT":8.575e-5,"MEAN_MOTION_DDOT":0},{"OBJECT_NAME":"SEEDS II (CO-66)","OBJECT_ID":"2008-021J","EPOCH":"2026-03-02T22:02:10.660416","MEAN_MOTION":15.28722011,"ECCENTRICITY":0.0002722,"INCLINATION":97.7504,"RA_OF_ASC_NODE":55.0685,"ARG_OF_PERICENTER":18.9486,"MEAN_ANOMALY":341.1853,"EPHEMERIS_TYPE":0,"CLASSIFICATION_TYPE":"U","NORAD_CAT_ID":32791,"ELEMENT_SET_NO":999,"REV_AT_EPOCH":97103,"BSTAR":0.00086611,"MEAN_MOTION_DOT":0.0002416,"MEAN_MOTION_DDOT":0},{"OBJECT_NAME":"YUBILEINY (RS30)","OBJECT_ID":"2008-025A","EPOCH":"2026-03-03T04:32:17.673216","MEAN_MOTION":12.4317565,"ECCENTRICITY":0.0019286,"INCLINATION":82.4985,"RA_OF_ASC_NODE":61.3684,"ARG_OF_PERICENTER":179.4109,"MEAN_ANOMALY":180.6996,"EPHEMERIS_TYPE":0,"CLASSIFICATION_TYPE":"U","NORAD_CAT_ID":32953,"ELEMENT_SET_NO":999,"REV_AT_EPOCH":80652,"BSTAR":-0.00022238,"MEAN_MOTION_DOT":-2.1e-7,"MEAN_MOTION_DDOT":0},{"OBJECT_NAME":"KKS-1 (KISEKI)","OBJECT_ID":"2009-002H","EPOCH":"2026-03-03T01:18:05.822784","MEAN_MOTION":14.82797505,"ECCENTRICITY":0.0006479,"INCLINATION":98.119,"RA_OF_ASC_NODE":342.8487,"ARG_OF_PERICENTER":277.1682,"MEAN_ANOMALY":82.8794,"EPHEMERIS_TYPE":0,"CLASSIFICATION_TYPE":"U","NORAD_CAT_ID":33499,"ELEMENT_SET_NO":999,"REV_AT_EPOCH":92046,"BSTAR":0.00028159,"MEAN_MOTION_DOT":2.222e-5,"MEAN_MOTION_DDOT":0},{"OBJECT_NAME":"SWISSCUBE","OBJECT_ID":"2009-051B","EPOCH":"2026-03-03T04:22:13.744992","MEAN_MOTION":14.62237116,"ECCENTRICITY":0.0006633,"INCLINATION":98.4106,"RA_OF_ASC_NODE":328.2095,"ARG_OF_PERICENTER":172.0833,"MEAN_ANOMALY":188.0473,"EPHEMERIS_TYPE":0,"CLASSIFICATION_TYPE":"U","NORAD_CAT_ID":35932,"ELEMENT_SET_NO":999,"REV_AT_EPOCH":87366,"BSTAR":0.00030096,"MEAN_MOTION_DOT":1.468e-5,"MEAN_MOTION_DDOT":0},{"OBJECT_NAME":"BEESAT-1","OBJECT_ID":"2009-051C","EPOCH":"2026-03-02T17:26:39.029568","MEAN_MOTION":14.61513291,"ECCENTRICITY":0.00048247,"INCLINATION":98.4036,"RA_OF_ASC_NODE":327.6002,"ARG_OF_PERICENTER":184.8887,"MEAN_ANOMALY":175.2267,"EPHEMERIS_TYPE":0,"CLASSIFICATION_TYPE":"U","NORAD_CAT_ID":35933,"ELEMENT_SET_NO":999,"REV_AT_EPOCH":87363,"BSTAR":0.0002662726,"MEAN_MOTION_DOT":1.272e-5,"MEAN_MOTION_DDOT":0},{"OBJECT_NAME":"ITUPSAT1","OBJECT_ID":"2009-051E","EPOCH":"2026-03-03T04:09:26.416224","MEAN_MOTION":14.60250598,"ECCENTRICITY":0.0006838,"INCLINATION":98.4124,"RA_OF_ASC_NODE":327.3548,"ARG_OF_PERICENTER":199.3753,"MEAN_ANOMALY":160.7188,"EPHEMERIS_TYPE":0,"CLASSIFICATION_TYPE":"U","NORAD_CAT_ID":35935,"ELEMENT_SET_NO":999,"REV_AT_EPOCH":87326,"BSTAR":0.00024205,"MEAN_MOTION_DOT":1.119e-5,"MEAN_MOTION_DDOT":0},{"OBJECT_NAME":"XIWANG-1 (HOPE-1)","OBJECT_ID":"2009-072B","EPOCH":"2026-03-03T03:34:37.619328","MEAN_MOTION":13.1643707,"ECCENTRICITY":0.0008039,"INCLINATION":100.39,"RA_OF_ASC_NODE":17.7346,"ARG_OF_PERICENTER":113.5613,"MEAN_ANOMALY":246.6345,"EPHEMERIS_TYPE":0,"CLASSIFICATION_TYPE":"U","NORAD_CAT_ID":36122,"ELEMENT_SET_NO":999,"REV_AT_EPOCH":77905,"BSTAR":0.00093977,"MEAN_MOTION_DOT":3.15e-6,"MEAN_MOTION_DDOT":0},{"OBJECT_NAME":"O/OREOS (USA 219)","OBJECT_ID":"2010-062C","EPOCH":"2026-03-03T02:23:20.798592","MEAN_MOTION":14.93236806,"ECCENTRICITY":0.001693,"INCLINATION":71.9727,"RA_OF_ASC_NODE":320.5587,"ARG_OF_PERICENTER":267.7511,"MEAN_ANOMALY":92.1721,"EPHEMERIS_TYPE":0,"CLASSIFICATION_TYPE":"U","NORAD_CAT_ID":37224,"ELEMENT_SET_NO":999,"REV_AT_EPOCH":10080,"BSTAR":0.00029097,"MEAN_MOTION_DOT":2.99e-5,"MEAN_MOTION_DDOT":0},{"OBJECT_NAME":"JUGNU","OBJECT_ID":"2011-058B","EPOCH":"2026-03-02T19:16:44.957568","MEAN_MOTION":14.13737032,"ECCENTRICITY":0.0018632,"INCLINATION":19.9596,"RA_OF_ASC_NODE":234.7346,"ARG_OF_PERICENTER":341.6497,"MEAN_ANOMALY":143.8293,"EPHEMERIS_TYPE":0,"CLASSIFICATION_TYPE":"U","NORAD_CAT_ID":37839,"ELEMENT_SET_NO":999,"REV_AT_EPOCH":74395,"BSTAR":0.00012266189,"MEAN_MOTION_DOT":5.02e-6,"MEAN_MOTION_DDOT":0},{"OBJECT_NAME":"SRMSAT","OBJECT_ID":"2011-058D","EPOCH":"2026-03-03T04:52:07.731264","MEAN_MOTION":14.11544671,"ECCENTRICITY":0.0011887,"INCLINATION":19.9732,"RA_OF_ASC_NODE":340.9649,"ARG_OF_PERICENTER":118.1185,"MEAN_ANOMALY":34.7703,"EPHEMERIS_TYPE":0,"CLASSIFICATION_TYPE":"U","NORAD_CAT_ID":37841,"ELEMENT_SET_NO":999,"REV_AT_EPOCH":74282,"BSTAR":0.00011156,"MEAN_MOTION_DOT":4.7e-6,"MEAN_MOTION_DDOT":0},{"OBJECT_NAME":"STRAND-1","OBJECT_ID":"2013-009E","EPOCH":"2026-03-03T02:08:27.912480","MEAN_MOTION":14.37087667,"ECCENTRICITY":0.0008639,"INCLINATION":98.3881,"RA_OF_ASC_NODE":244.9451,"ARG_OF_PERICENTER":181.0314,"MEAN_ANOMALY":179.0856,"EPHEMERIS_TYPE":0,"CLASSIFICATION_TYPE":"U","NORAD_CAT_ID":39090,"ELEMENT_SET_NO":999,"REV_AT_EPOCH":68182,"BSTAR":0.00016299,"MEAN_MOTION_DOT":4.41e-6,"MEAN_MOTION_DDOT":0},{"OBJECT_NAME":"ZACUBE-1 (TSHEPISOSAT)","OBJECT_ID":"2013-066B","EPOCH":"2026-03-02T20:39:01.797408","MEAN_MOTION":15.00236927,"ECCENTRICITY":0.00415546,"INCLINATION":97.8182,"RA_OF_ASC_NODE":23.6506,"ARG_OF_PERICENTER":243.0931,"MEAN_ANOMALY":116.6044,"EPHEMERIS_TYPE":0,"CLASSIFICATION_TYPE":"U","NORAD_CAT_ID":39417,"ELEMENT_SET_NO":999,"REV_AT_EPOCH":66478,"BSTAR":0.00048380277,"MEAN_MOTION_DOT":6.102e-5,"MEAN_MOTION_DDOT":0},{"OBJECT_NAME":"GOMX-1","OBJECT_ID":"2013-066Q","EPOCH":"2026-03-03T03:36:02.350944","MEAN_MOTION":14.69065861,"ECCENTRICITY":0.0130631,"INCLINATION":97.6572,"RA_OF_ASC_NODE":269.2627,"ARG_OF_PERICENTER":58.3274,"MEAN_ANOMALY":303.0595,"EPHEMERIS_TYPE":0,"CLASSIFICATION_TYPE":"U","NORAD_CAT_ID":39430,"ELEMENT_SET_NO":999,"REV_AT_EPOCH":65434,"BSTAR":0.00028681,"MEAN_MOTION_DOT":1.868e-5,"MEAN_MOTION_DDOT":0},{"OBJECT_NAME":"CUBEBUG-2 (LO-74)","OBJECT_ID":"2013-066AA","EPOCH":"2026-03-02T20:40:03.778176","MEAN_MOTION":14.9284801,"ECCENTRICITY":0.00594548,"INCLINATION":97.8806,"RA_OF_ASC_NODE":10.5236,"ARG_OF_PERICENTER":21.5397,"MEAN_ANOMALY":338.8304,"EPHEMERIS_TYPE":0,"CLASSIFICATION_TYPE":"U","NORAD_CAT_ID":39440,"ELEMENT_SET_NO":999,"REV_AT_EPOCH":66112,"BSTAR":0.00072433108,"MEAN_MOTION_DOT":7.706e-5,"MEAN_MOTION_DDOT":0},{"OBJECT_NAME":"FUNCUBE-1 (AO-73)","OBJECT_ID":"2013-066AE","EPOCH":"2026-03-03T03:18:06.162912","MEAN_MOTION":15.07754747,"ECCENTRICITY":0.0036601,"INCLINATION":97.8166,"RA_OF_ASC_NODE":31.565,"ARG_OF_PERICENTER":201.9593,"MEAN_ANOMALY":158.0068,"EPHEMERIS_TYPE":0,"CLASSIFICATION_TYPE":"U","NORAD_CAT_ID":39444,"ELEMENT_SET_NO":999,"REV_AT_EPOCH":66367,"BSTAR":0.00066728,"MEAN_MOTION_DOT":0.00010295,"MEAN_MOTION_DDOT":0},{"OBJECT_NAME":"UWE-3","OBJECT_ID":"2013-066AG","EPOCH":"2026-03-02T20:11:08.016864","MEAN_MOTION":14.96081924,"ECCENTRICITY":0.0048825,"INCLINATION":97.8591,"RA_OF_ASC_NODE":17.347,"ARG_OF_PERICENTER":316.1252,"MEAN_ANOMALY":43.6095,"EPHEMERIS_TYPE":0,"CLASSIFICATION_TYPE":"U","NORAD_CAT_ID":39446,"ELEMENT_SET_NO":999,"REV_AT_EPOCH":66167,"BSTAR":0.00055859,"MEAN_MOTION_DOT":6.37e-5,"MEAN_MOTION_DDOT":0}]
