CUTE-1.7+APD II (CO-65) 
1 32785U 08021C   26062.14583151  .00008575  00000+0  55688-3 0  9999
2 32785  97.8194  41.5004 0010305  38.7963 321.4002 15.08255715969201
SEEDS II (CO-66)        
1 32791U 08021J   26061.91817894  .00024160  00000+0  86611-3 0  9992
2 32791  97.7504  55.0685 0002722  18.9486 341.1853 15.28722011971038
YUBILEINY (RS30)        
1 32953U 08025A   26062.18909344 -.00000021  00000+0 -22238-3 0  9995
2 32953  82.4985  61.3684 0019286 179.4109 180.6996 12.43175650806529
KKS-1 (KISEKI)          
1 33499U 09002H   26062.05423406  .00002222  00000+0  28159-3 0  9994
2 33499  98.1190 342.8487 0006479 277.1682  82.8794 14.82797505920460
SWISSCUBE               
1 35932U 09051B   26062.18210353  .00001468  00000+0  30096-3 0  9995
2 35932  98.4106 328.2095 0006633 172.0833 188.0473 14.62237116873667
BEESAT-1                
1 35933U 09051C   26061.72684062  .00001272  00000+0  26627-3 0  9995
2 35933  98.4036 327.6002 0004824 184.8887 175.2267 14.61513291873637
ITUPSAT1                
1 35935U 09051E   26062.17322241  .00001119  00000+0  24205-3 0  9995
2 35935  98.4124 327.3548 0006838 199.3753 160.7188 14.60250598873266
XIWANG-1 (HOPE-1)       
1 36122U 09072B   26062.14904652  .00000315  00000+0  93977-3 0  9995
2 36122 100.3900  17.7346 0008039 113.5613 246.6345 13.16437070779057
O/OREOS (USA 219)       
1 37224U 10062C   26062.09954628  .00002990  00000+0  29097-3 0  9995
2 37224  71.9727 320.5587 0016930 267.7511  92.1721 14.93236806100804
JUGNU                   
1 37839U 11058B   26061.80329812  .00000502  00000+0  12266-3 0  9999
2 37839  19.9596 234.7346 0018632 341.6497 143.8293 14.13737032743953
SRMSAT                  
1 37841U 11058D   26062.20286726  .00000470  00000+0  11156-3 0  9994
2 37841  19.9732 340.9649 0011887 118.1185  34.7703 14.11544671742822
STRAND-1                
1 39090U 13009E   26062.08921195  .00000441  00000+0  16299-3 0  9993
2 39090  98.3881 244.9451 0008639 181.0314 179.0856 14.37087667681823
ZACUBE-1 (TSHEPISOSAT)  
1 39417U 13066B   26061.86043747  .00006102  00000+0  48380-3 0  9998
2 39417  97.8182  23.6506 0041554 243.0931 116.6044 15.00236927664782
GOMX-1                  
1 39430U 13066Q   26062.15002721  .00001868  00000+0  28681-3 0  9999
2 39430  97.6572 269.2627 0130631  58.3274 303.0595 14.69065861654347
CUBEBUG-2 (LO-74)       
1 39440U 13066AA  26061.86115484  .00007706  00000+0  72433-3 0  9999
2 39440  97.8806  10.5236 0059454  21.5397 338.8304 14.92848010661123
FUNCUBE-1 (AO-73)       
1 39444U 13066AE  26062.13757133  .00010295  00000+0  66728-3 0  9994
2 39444  97.8166  31.5650 0036601 201.9593 158.0068 15.07754747663671
UWE-3                   
1 39446U 13066AG  26061.84106501  .00006370  00000+0  55859-3 0  9992
2 39446  97.8591  17.3470 0048825 316.1252  43.6095 14.96081924661673
